H1 CPF 01  gfz 2022 09 15 12  7582 terrasarx 
H2 0702601  6201 31698    2022 09 15 12 59 42 2022 09 20 00 00 42   120 1 1  0 0 0
H9
10 0 59839  72702.000000  0    5730796.578  -3375678.370  -1805203.074
10 0 59839  72822.000000  0    5789859.636  -3621593.592   -918901.138
10 0 59839  72942.000000  0    5744063.308  -3804380.134    -16439.376
10 0 59839  73062.000000  0    5595296.596  -3918987.023    886310.693
10 0 59839  73182.000000  0    5347346.105  -3961614.597   1773456.252
10 0 59839  73302.000000  0    5005807.530  -3929815.983   2629373.169
10 0 59839  73422.000000  0    4577960.418  -3822570.179   3438988.839
10 0 59839  73542.000000  0    4072611.456  -3640326.291   4188053.676
10 0 59839  73662.000000  0    3499909.297  -3385018.297   4863396.516
10 0 59839  73782.000000  0    2871133.588  -3060048.464   5453157.702
10 0 59839  73902.000000  0    2198467.218  -2670240.533   5946995.191
10 0 59839  74022.000000  0    1494754.809  -2221764.898   6336261.771
10 0 59839  74142.000000  0     773253.673  -1722037.750   6614150.289
10 0 59839  74262.000000  0      47382.067  -1179595.610   6775806.619
10 0 59839  74382.000000  0    -669530.506   -603947.560   6818408.992
10 0 59839  74502.000000  0   -1364486.983     -5408.000   6741213.462
10 0 59839  74622.000000  0   -2025057.317    605087.730   6545566.144
10 0 59839  74742.000000  0   -2639600.159   1216182.380   6234881.355
10 0 59839  74862.000000  0   -3197468.578   1816307.028   5814585.960
10 0 59839  74982.000000  0   -3689196.909   2393899.665   5292030.997
10 0 59839  75102.000000  0   -4106666.035   2937629.348   4676369.593
10 0 59839  75222.000000  0   -4443242.944   3436620.736   3978401.844
10 0 59839  75342.000000  0   -4693892.469   3880674.274   3210388.983
10 0 59839  75462.000000  0   -4855257.225   4260477.914   2385839.131
10 0 59839  75582.000000  0   -4925704.533   4567806.322   1519268.590
10 0 59839  75702.000000  0   -4905338.139   4795700.948    625940.880
10 0 59839  75822.000000  0   -4795974.832   4938624.888   -278409.066
10 0 59839  75942.000000  0   -4601087.395   4992591.488  -1177860.421
10 0 59839  76062.000000  0   -4325711.707   4955261.865  -2056597.572
10 0 59839  76182.000000  0   -3976322.416   4826007.703  -2899195.834
10 0 59839  76302.000000  0   -3560681.927   4605938.577  -3690898.552
10 0 59839  76422.000000  0   -3087664.908   4297893.624  -4417876.845
10 0 59839  76542.000000  0   -2567065.381   3906399.510  -5067467.634
10 0 59839  76662.000000  0   -2009391.905   3437597.657  -5628387.019
10 0 59839  76782.000000  0   -1425654.292   2899141.524  -6090918.302
10 0 59839  76902.000000  0    -827145.767   2300065.004  -6447070.154
10 0 59839  77022.000000  0    -225226.119   1650626.836  -6690702.631
10 0 59839  77142.000000  0     368889.848    962134.274  -6817622.343
10 0 59839  77262.000000  0     944335.889    246748.721  -6825647.526
10 0 59839  77382.000000  0    1490789.236   -482725.193  -6714641.983
10 0 59839  77502.000000  0    1998651.073  -1213063.791  -6486515.522
10 0 59839  77622.000000  0    2459211.321  -1930857.637  -6145194.769
10 0 59839  77742.000000  0    2864796.492  -2622751.608  -5696563.061
10 0 59839  77862.000000  0    3208898.637  -3275690.462  -5148371.143
10 0 59839  77982.000000  0    3486283.278  -3877166.409  -4510113.270
10 0 59839  78102.000000  0    3693071.326  -4415459.590  -3792872.028
10 0 59839  78222.000000  0    3826796.382  -4879869.808  -3009136.460
10 0 59839  78342.000000  0    3886436.423  -5260936.089  -2172592.189
10 0 59839  78462.000000  0    3872415.837  -5550637.393  -1297884.532
10 0 59839  78582.000000  0    3786578.306  -5742567.348   -400360.913
10 0 59839  78702.000000  0    3632130.384  -5832079.985    504203.645
10 0 59839  78822.000000  0    3413556.474  -5816401.204   1399890.695
10 0 59839  78942.000000  0    3136508.484  -5694703.443   2270928.151
10 0 59839  79062.000000  0    2807670.321  -5468138.930   3101977.261
10 0 59839  79182.000000  0    2434602.618  -5139833.998   3878409.133
10 0 59839  79302.000000  0    2025572.689  -4714844.121   4586567.095
10 0 59839  79422.000000  0    1589372.669  -4200070.199   5214009.459
10 0 59839  79542.000000  0    1135131.492  -3604139.002   5749727.912
10 0 59839  79662.000000  0     672122.944  -2937249.692   6184338.020
10 0 59839  79782.000000  0     209576.058  -2210991.882   6510236.839
10 0 59839  79902.000000  0    -243507.837  -1438139.628   6721728.786
10 0 59839  80022.000000  0    -678528.793   -632424.991   6815120.070
10 0 59839  80142.000000  0   -1087450.267    191707.478   6788779.959
10 0 59839  80262.000000  0   -1462946.944   1019359.728   6643167.189
10 0 59839  80382.000000  0   -1798535.516   1835448.718   6380822.170
10 0 59839  80502.000000  0   -2088687.098   2624980.448   6006325.623
10 0 59839  80622.000000  0   -2328919.057   3373325.925   5526223.312
10 0 59839  80742.000000  0   -2515865.051   4066494.148   4948918.123
10 0 59839  80862.000000  0   -2647323.041   4691398.708   4284529.741
10 0 59839  80982.000000  0   -2722278.931   5236111.930   3544721.912
10 0 59839  81102.000000  0   -2740905.265   5690100.827   2742499.522
10 0 59839  81222.000000  0   -2704534.748   6044438.570   1891979.235
10 0 59839  81342.000000  0   -2615609.544   6291987.294   1008137.964
10 0 59839  81462.000000  0   -2477606.650   6427547.382    106543.453
10 0 59839  81582.000000  0   -2294941.710   6447969.288   -796927.730
10 0 59839  81702.000000  0   -2072853.870   6352225.070  -1686379.770
10 0 59839  81822.000000  0   -1817272.716   6141434.026  -2546188.999
10 0 59839  81942.000000  0   -1534671.739   5818842.510  -3361283.680
10 0 59839  82062.000000  0   -1231914.531   5389764.988  -4117409.630
10 0 59839  82182.000000  0    -916096.569   4861484.901  -4801378.849
10 0 59839  82302.000000  0    -594386.223   4243119.542  -5401294.304
10 0 59839  82422.000000  0    -273868.367   3545453.052  -5906749.971
10 0 59839  82542.000000  0      38606.311   2780739.357  -6309002.283
10 0 59839  82662.000000  0     336562.202   1962480.697  -6601109.419
10 0 59839  82782.000000  0     614027.520   1105188.546  -6778040.041
10 0 59839  82902.000000  0     865649.658    224128.129  -6836751.497
10 0 59839  83022.000000  0    1086794.943   -664948.946  -6776236.228
10 0 59839  83142.000000  0    1273631.211  -1546080.390  -6597535.806
10 0 59839  83262.000000  0    1423192.481  -2403371.609  -6303724.124
10 0 59839  83382.000000  0    1533425.983  -3221275.315  -5899861.649
10 0 59839  83502.000000  0    1603219.653  -3984871.145  -5392918.891
10 0 59839  83622.000000  0    1632409.495  -4680138.919  -4791665.770
10 0 59839  83742.000000  0    1621767.708  -5294218.085  -4106530.531
10 0 59839  83862.000000  0    1572970.588  -5815652.986  -3349430.120
10 0 59839  83982.000000  0    1488545.807  -6234616.895  -2533570.449
10 0 59839  84102.000000  0    1371801.587  -6543108.558  -1673220.267
10 0 59839  84222.000000  0    1226738.653  -6735116.745   -783462.153
10 0 59839  84342.000000  0    1057945.218  -6806748.239    120075.201
10 0 59839  84462.000000  0     870479.866  -6756313.954   1021497.798
10 0 59839  84582.000000  0     669743.482  -6584372.062   1904933.842
10 0 59839  84702.000000  0     461344.648  -6293725.698   2754823.323
10 0 59839  84822.000000  0     250960.919  -5889373.376   3556201.482
10 0 59839  84942.000000  0      44199.293  -5378415.193   4294967.606
10 0 59839  85062.000000  0    -153539.236  -4769919.943   4958136.051
10 0 59839  85182.000000  0    -337188.198  -4074753.991   5534065.175
10 0 59839  85302.000000  0    -502133.821  -3305377.537   6012659.883
10 0 59839  85422.000000  0    -644320.970  -2475611.194   6385544.070
10 0 59839  85542.000000  0    -760344.536  -1600381.517   6646199.105
10 0 59839  85662.000000  0    -847524.623   -695450.458   6790071.850
10 0 59839  85782.000000  0    -903964.745    222869.912   6814650.591
10 0 59839  85902.000000  0    -928591.538   1138011.755   6719506.209
10 0 59839  86022.000000  0    -921174.549   2033449.880   6506299.032
10 0 59839  86142.000000  0    -882326.690   2892999.521   6178751.611
10 0 59839  86262.000000  0    -813485.727   3701109.367   5742588.029
10 0 59839  86382.000000  0    -716876.678   4443145.584   5205439.029
10 0 59840    102.000000  0    -595455.643   5105661.311   4576715.035
10 0 59840    222.000000  0    -452836.523   5676648.976   3867446.363
10 0 59840    342.000000  0    -293200.871   6145764.921   3090092.848
10 0 59840    462.000000  0    -121195.366   6504529.060   2258329.107
10 0 59840    582.000000  0      58184.099   6746490.075   1386798.474
10 0 59840    702.000000  0     239718.537   6867347.466    490849.684
10 0 59840    822.000000  0     418097.472   6865033.092   -413740.332
10 0 59840    942.000000  0     588053.832   6739747.727  -1311053.597
10 0 59840   1062.000000  0     744496.556   6493950.371  -2185320.014
10 0 59840   1182.000000  0     882638.385   6132303.355  -3021201.120
10 0 59840   1302.000000  0     998116.918   5661574.585  -3804063.538
10 0 59840   1422.000000  0    1087105.500   5090499.420  -4520236.676
10 0 59840   1542.000000  0    1146411.240   4429605.997  -5157249.119
10 0 59840   1662.000000  0    1173557.999   3691009.519  -5704039.199
10 0 59840   1782.000000  0    1166852.282   2888181.432  -6151138.301
10 0 59840   1902.000000  0    1125431.325   2035697.028  -6490823.937
10 0 59840   2022.000000  0    1049292.595   1148969.250  -6717240.833
10 0 59840   2142.000000  0     939304.493    243972.313  -6826492.672
10 0 59840   2262.000000  0     797198.377   -663041.884  -6816701.863
10 0 59840   2382.000000  0     625541.373  -1555829.576  -6688037.038
10 0 59840   2502.000000  0     427691.292  -2418437.540  -6442709.257
10 0 59840   2622.000000  0     207734.030  -3235480.956  -6084940.305
10 0 59840   2742.000000  0     -29597.057  -3992415.593  -5620898.274
99
